{
    "links": {
        "self": "http://www.neowsapp.com/rest/v1/neo/3781458?api_key=iIulBulltgU6a56xZRHN4H3l9WmuAYTsLGpBGhQ2"
    },
    "id": "3781458",
    "neo_reference_id": "3781458",
    "name": "(2017 RN15)",
    "designation": "2017 RN15",
    "nasa_jpl_url": "http://ssd.jpl.nasa.gov/sbdb.cgi?sstr=3781458",
    "absolute_magnitude_h": 25.1,
    "estimated_diameter": {
        "kilometers": {
            "estimated_diameter_min": 0.0253837029,
            "estimated_diameter_max": 0.0567596853
        },
        "meters": {
            "estimated_diameter_min": 25.3837029364,
            "estimated_diameter_max": 56.7596852866
        },
        "miles": {
            "estimated_diameter_min": 0.0157726969,
            "estimated_diameter_max": 0.0352688224
        },
        "feet": {
            "estimated_diameter_min": 83.279867942,
            "estimated_diameter_max": 186.2194458756
        }
    },
    "is_potentially_hazardous_asteroid": false,
    "close_approach_data": [
        {
            "close_approach_date": "2017-09-13",
            "close_approach_date_full": "2017-Sep-13 03:43",
            "epoch_date_close_approach": 1505274180000,
            "relative_velocity": {
                "kilometers_per_second": "6.9852385863",
                "kilometers_per_hour": "25146.8589107624",
                "miles_per_hour": "15625.2801937457"
            },
            "miss_distance": {
                "astronomical": "0.1053076111",
                "lunar": "40.9646607179",
                "kilometers": "15753794.315348357",
                "miles": "9788953.8677350466"
            },
            "orbiting_body": "Earth"
        }
    ],
    "orbital_data": {
        "orbit_id": "3",
        "orbit_determination_date": "2017-09-23 06:50:55",
        "first_observation_date": "2017-09-14",
        "last_observation_date": "2017-09-22",
        "data_arc_in_days": 8,
        "observations_used": 17,
        "orbit_uncertainty": "8",
        "minimum_orbit_intersection": ".1047",
        "jupiter_tisserand_invariant": "4.682",
        "epoch_osculation": "2458012.5",
        "eccentricity": ".2142484905097608",
        "semi_major_axis": "1.410116940840436",
        "inclination": "12.81167318770884",
        "ascending_node_longitude": "354.4457080743701",
        "orbital_period": "611.6192165057845",
        "perihelion_distance": "1.108001514823131",
        "perihelion_argument": "348.8042923684263",
        "aphelion_distance": "1.712232366857741",
        "perihelion_time": "2458001.440470442035",
        "mean_anomaly": "6.509655899324976",
        "mean_motion": ".5886015191881977",
        "equinox": "J2000",
        "orbit_class": {
            "orbit_class_type": "AMO",
            "orbit_class_description": "Near-Earth asteroid orbits similar to that of 1221 Amor",
            "orbit_class_range": "1.017 AU < q (perihelion) < 1.3 AU"
        }
    },
    "is_sentry_object": false
}